satname,norad_id,inclination_deg,eccentricity,mean_motion_rev_per_day,perigee_km,apogee_km,l1,l2
STARLINK-1454,45671,53.0512,0.0008418,15.4883042,414.4235480678535,425.8691379041047,1 45671U 20035Q   26059.40083943  .00081892  00000+0  14880-2 0  9996,2 45671  53.0512  97.4235 0008418  21.6057 338.5304 15.48830420317476
STARLINK-1456,45673,53.0489,0.0001561,15.49418317,417.3656386782941,419.4875258286738,1 45673U 20035S   26059.46083725  .00024383  00000+0  44336-3 0  9994,2 45673  53.0489  90.5936 0001561  92.8925 267.2262 15.49418317317591
STARLINK-1457,45674,53.0478,0.0010066,15.75930693,335.2196159431878,348.7485637212376,1 45674U 20035T   26059.28927372  .00104880  00000+0  65772-3 0  9998,2 45674  53.0478  69.4109 0010066  31.5997 328.5625 15.75930693317843
STARLINK-1458,45675,53.0529,0.0005834,15.41793467,436.83798271563046,444.794337262706,1 45675U 20035U   26059.54246225  .00076437  00000+0  17690-2 0  9990,2 45675  53.0529  98.8997 0005834  44.8935 315.2540 15.41793467317442
STARLINK-1460,45676,53.116,0.0001763,15.2113672,501.1976251086062,503.6237062155178,1 45676U 20035V   26059.91668981  .00096173  00000+0  42243-2 0  9990,2 45676  53.1160 105.3865 0001763  98.1692  97.4318 15.21136720  5775
STARLINK-1392,45677,53.1315,0.0001014,15.2427617,492.26308685049025,493.6565452847881,1 45677U 20035W   26059.91668981  .00948407  00000+0  35406-1 0  9999,2 45677  53.1315 105.4184 0001014  80.0205  38.3268 15.24276170  5788
STARLINK-1394,45679,53.0506,0.0001843,15.48018456,421.26998950470625,423.7767129101603,1 45679U 20035Y   26059.45449126  .00087890  00000+0  16429-2 0  9993,2 45679  53.0506  80.8103 0001843  78.5517 281.5697 15.48018456317721
STARLINK-1402,45685,53.0491,9.12e-05,15.43153408,436.18780406636415,437.43085027643883,1 45685U 20035AE  26059.33348850  .00068737  00000+0  15232-2 0  9999,2 45685  53.0491  67.8861 0000912 259.9577 100.1325 15.43153408317900
STARLINK-1404,45686,53.1615,0.000152,15.30192009,474.1972160675314,476.28064235001057,1 45686U 20035AF  26059.35586613 -.00000642  00000+0 -95586-5 0  9999,2 45686  53.1615  93.0518 0001520  93.6067 266.5107 15.30192009317544
STARLINK-1413,45689,53.1605,0.0001341,15.30191306,474.32199026553644,476.1600662527153,1 45689U 20035AJ  26059.36217074 -.00000291  00000+0  23052-5 0  9993,2 45689  53.1605  92.9033 0001341  78.8601 281.2550 15.30191306317462
STARLINK-1417,45693,53.051,0.0002887,15.11906773,528.3908490812291,532.3798298800457,1 45693U 20035AN  26059.47734907  .00022586  00000+0  13168-2 0  9993,2 45693  53.0510  96.0444 0002887 209.9785 150.1042 15.11906773317504
STARLINK-1420,45695,53.0538,0.0003375,15.51677712,409.5357248115315,414.1189507395302,1 45695U 20035AQ  26059.91668981  .00134797  00000+0  21973-2 0  9993,2 45695  53.0538  64.6768 0003375  62.0750 259.0136 15.51677712  5890
STARLINK-1422,45696,53.1591,0.0001215,15.30188544,474.41658875133635,476.0819616162062,1 45696U 20035AR  26059.50017307 -.00000316  00000+0  14688-5 0  9997,2 45696  53.1591  92.2642 0001215  81.4967 278.6172 15.30188544317569
STARLINK-1351,45697,53.0537,0.0002637,15.50156107,414.47819630643426,418.06156649568493,1 45697U 20035AS  26059.31304108  .00035124  00000+0  61798-3 0  9991,2 45697  53.0537  66.7040 0002637  71.2016 288.9278 15.50156107317910
STARLINK-1398,45699,53.0399,0.0004471,15.89383709,301.02206989301067,306.9972454342933,1 45699U 20035AU  26059.91668981  .00235781  00000+0  77395-3 0  9992,2 45699  53.0399 344.0314 0004471 113.0377 242.3398 15.89383709  5987
STARLINK-1400,45700,53.0517,0.0007099,15.48594509,416.01016212192826,425.66334505727446,1 45700U 20035AV  26059.65823700  .00083682  00000+0  15332-2 0  9991,2 45700  53.0517  66.2645 0007099  57.2701 302.8990 15.48594509317940
STARLINK-1403,45701,53.0547,0.0001597,15.06396289,546.1169516610607,548.3289116232263,1 45701U 20035AW  26059.45232728 -.00000108  00000+0  11625-4 0  9990,2 45701  53.0547  78.0856 0001597  95.2343 264.8828 15.06396289317755
STARLINK-1407,45703,53.0368,0.0011861,15.57617004,386.52288365240474,402.58906592719995,1 45703U 20035AY  26059.85039938  .00119843  00000+0  15717-2 0  9994,2 45703  53.0368 358.7511 0011861  70.2631 289.9658 15.57617004318917
STARLINK-1411,45706,53.0457,0.0005448,15.60026948,383.89320321393643,391.26512754773466,1 45706U 20035BB  26059.60229532  .00091126  00000+0  10990-2 0  9992,2 45706  53.0457  25.7751 0005448  87.7894 272.3742 15.60026948318504
STARLINK-1423,45710,53.0513,0.0006723,15.50814615,409.77979477385543,418.91296792841877,1 45710U 20035BF  26059.91668981  .00110701  00000+0  18669-2 0  9998,2 45710  53.0513  64.2236 0006723  70.9711  38.4854 15.50814615  5847
STARLINK-1433,45711,53.0516,0.0006839,15.52849693,403.7691984925823,413.0518381881684,1 45711U 20035BG  26059.80472504  .00092670  00000+0  14575-2 0  9997,2 45711  53.0516  63.9362 0006839  61.0759 299.0935 15.52849693317980
STARLINK-1434,45712,53.0563,0.0004695,15.25598813,485.76378655350163,492.21201683619256,1 45712U 20035BH  26059.26947662  .00049447  00000+0  19210-2 0  9995,2 45712  53.0563  63.6306 0004695  47.8787 312.2609 15.25598813317957
STARLINK-1465,45731,53.0509,0.0003111,15.48276327,419.65276341181107,423.8836644359153,1 45731U 20038B   26059.80624276  .00078951  00000+0  14650-2 0  9997,2 45731  53.0509 265.7316 0003111 189.0020 171.0932 15.48276327315007
STARLINK-1471,45735,53.0464,0.000191,15.48299245,420.4023429959134,422.9998811547275,1 45735U 20038F   26059.74018012  .00029897  00000+0  56298-3 0  9999,2 45735  53.0464 184.8810 0001910 186.1652 173.9332 15.48299245316140
STARLINK-1480,45741,53.0515,0.0008815,15.46728694,420.30526418920545,432.30149257629364,1 45741U 20038M   26059.81653293  .00074711  00000+0  14623-2 0  9990,2 45741  53.0515 259.6505 0008815 148.6767 211.4767 15.46728694315105
STARLINK-1500,45744,53.0356,0.0002818,15.34172254,461.45229349535384,465.3081726079008,1 45744U 20038Q   26059.75467490  .00027997  00000+0  84259-3 0  9995,2 45744  53.0356 234.6465 0002818 195.2092 164.8824 15.34172254315449
STARLINK-1504,45746,53.0229,0.0001929,15.52457081,408.24532349619585,410.8640149421808,1 45746U 20038S   26059.74040228  .00034393  00000+0  55779-3 0  9995,2 45746  53.0229 185.3385 0001929 160.1109 199.9975 15.52457081316121
STARLINK-1506,45747,53.0754,0.0002942,15.25765407,486.46786358021564,490.5081857447267,1 45747U 20038T   26059.81814407  .00008051  00000+0  32411-3 0  9992,2 45747  53.0754 243.3867 0002942 187.8856 172.2096 15.25765407315330
STARLINK-1464,45751,53.0511,0.0003285,15.42817288,435.5600644067963,440.0381344241123,1 45751U 20038X   26059.82508804  .00034577  00000+0  78291-3 0  9997,2 45751  53.0511 246.7364 0003285 182.9573 177.1412 15.42817288315282
STARLINK-1477,45754,53.048,0.0001609,15.13713116,523.7775005925814,525.998894101087,1 45754U 20038AA  26059.85368443  .00032118  00000+0  17714-2 0  9997,2 45754  53.0480 253.1063 0001609  92.8101 267.3075 15.13713116315192
STARLINK-1478,45755,53.0527,0.00054,15.53012585,404.27148016741194,411.6004389637419,1 45755U 20038AB  26059.75812906  .00087329  00000+0  13672-2 0  9998,2 45755  53.0527 241.0036 0005400 178.8123 181.2900 15.53012585315347
STARLINK-1484,45756,53.0002,0.0006908,15.95509862,282.2898829924907,291.4982899415545,1 45756U 20038AC  26059.91668981  .00352795  60591-4  86780-3 0  9998,2 45756  53.0002 101.8903 0006908  22.7821  97.3825 15.95509862  6073
STARLINK-1493,45759,53.0519,0.0001745,15.47184313,423.7803111401845,426.15459459423437,1 45759U 20038AF  26059.91668981  .01279217  00000+0  22372-1 0  9998,2 45759  53.0519 246.5552 0001745  80.8482 177.9347 15.47184313  5933
STARLINK-1494,45760,53.0473,0.0003254,15.71727758,351.76825345585803,356.1495014529046,1 45760U 20038AG  26059.66404935  .00092937  00000+0  70152-3 0  9991,2 45760  53.0473 196.4271 0003254 323.4650  36.6145 15.71727758315973
STARLINK-1502,45764,53.0518,0.0001123,15.4547383,429.2216199597142,430.7507244241888,1 45764U 20038AL  26059.83160028  .00039290  00000+0  81167-3 0  9997,2 45764  53.0518 248.3094 0001123  54.6200 305.4911 15.45473830315264
STARLINK-1470,45772,53.0444,0.0001096,15.27013508,483.9937293002022,485.4980732321601,1 45772U 20038AU  26059.84167634  .00047606  00000+0  17736-2 0  9997,2 45772  53.0444 215.3581 0001096 152.9950 207.1105 15.27013508315725
STARLINK-1482,45773,53.1602,0.000134,15.3019397,474.31472238162223,476.15142556144747,1 45773U 20038AV  26059.79818288 -.00001660  00000+0 -43946-4 0  9996,2 45773  53.1602 232.3172 0001340  79.1361 280.9791 15.30193970315485
STARLINK-1496,45780,53.0517,0.0005551,15.46264,423.8886870005881,431.44449014462134,1 45780U 20038BC  26059.72776060  .00083517  00000+0  16594-2 0  9994,2 45780  53.0517 220.6437 0005551 171.7074 188.4025 15.46264000315627
STARLINK-1513,45786,53.1628,0.0001145,15.30198413,474.43509856485343,476.00451727386735,1 45786U 20038BJ  26059.74239611  .00014013  00000+0  48437-3 0  9995,2 45786  53.1628 232.7084 0001145  64.3149 295.7970 15.30198413315475
STARLINK-1522,46027,53.0554,0.0001058,15.06509513,546.143270329887,547.6086030672923,1 46027U 20055A   26059.73880484  .00015799  00000+0  10740-2 0  9999,2 46027  53.0554 166.7987 0001058  57.4648 302.6443 15.06509513307530
STARLINK-1523,46028,53.0542,0.000129,15.07041375,544.3534166477739,546.1396495993204,1 46028U 20055B   26059.81927978  .00080167  00000+0  52484-2 0  9991,2 46028  53.0542 166.4332 0001290  71.1887 288.9242 15.07041375307569
STARLINK-1526,46029,53.0614,0.0001907,15.087732,538.6282986447295,541.2668561025412,1 46029U 20055C   26059.91668981  .00007978  00000+0  51971-3 0  9999,2 46029  53.0614 165.9917 0001907  94.7800 115.9148 15.08773200  5529
STARLINK-1555,46032,53.0554,0.0001371,15.06437068,546.1485024746826,548.0474018985715,1 46032U 20055F   26059.73152848  .00016460  00000+0  11202-2 0  9991,2 46032  53.0554 166.8340 0001371  82.8646 277.2499 15.06437068307542
